MALLIGYONG-1            
1 58400U 23179A   24108.57142186  .00012151  00000+0  53518-3 0  9992
2 58400  97.4119 356.3289 0011263 112.2262 248.0170 15.21918779 22506
